NORAD_CAT_ID,OBJECT_NAME,OBJECT_TYPE,EPOCH,MEAN_MOTION,ECCENTRICITY,INCLINATION,RA_OF_ASC_NODE,ARG_OF_PERICENTER,MEAN_ANOMALY,BSTAR,MEAN_MOTION_DOT,MEAN_MOTION_DDOT,TLE_LINE0,TLE_LINE1,TLE_LINE2,SEMIMAJOR_AXIS,PERIOD,APOGEE,PERIGEE,DECAYED
53280.0,STARLINK-4169,PAYLOAD,2024-06-01 07:19:45,15.08838914,0.0001431,53.2172,160.5276,92.8758,267.2398,-5.0455e-06,-3.68e-06,0.0,0 STARLINK-4169,1 53280U 22086AQ  24153.30538783 -.00000368  00000-0 -50455-5 0  9991,2 53280  53.2172 160.5276 0001431  92.8758 267.2398 15.08838914104082,6917.884,95.438,540.739,538.759,0.0
53280.0,STARLINK-4169,PAYLOAD,2024-06-02 07:10:32,15.08833494,0.0001323,53.2168,156.0668,90.693,269.4214,1.6501e-05,-2.5e-07,0.0,0 STARLINK-4169,1 53280U 22086AQ  24154.29899239 -.00000025  00000-0  16501-4 0  9998,2 53280  53.2168 156.0668 0001323  90.6930 269.4214 15.08833494104405,6917.9,95.438,540.681,538.85,0.0
53280.0,STARLINK-4169,PAYLOAD,2024-06-03 07:01:19,15.08837111,0.0001207,53.2161,151.6058,87.3776,272.7354,7.2454e-05,8.65e-06,0.0,0 STARLINK-4169,1 53280U 22086AQ  24155.29259210  .00000865  00000-0  72454-4 0  9998,2 53280  53.2161 151.6058 0001207  87.3776 272.7354 15.08837111104552,6917.889,95.438,540.589,538.919,0.0
53280.0,STARLINK-4169,PAYLOAD,2024-06-03 16:33:38,15.08840191,0.0001218,53.2163,149.8215,86.3488,273.7644,9.3072e-05,1.194e-05,0.0,0 STARLINK-4169,1 53280U 22086AQ  24155.69003041  .00001194  00000-0  93072-4 0  9996,2 53280  53.2163 149.8215 0001218  86.3488 273.7644 15.08840191104442,6917.88,95.438,540.587,538.902,0.0
53280.0,STARLINK-4169,PAYLOAD,2024-06-04 08:27:29,15.08843319,0.0001272,53.2166,146.8485,89.5108,270.603,0.00012754,1.743e-05,0.0,0 STARLINK-4169,1 53280U 22086AQ  24156.35242832  .00001743  00000-0  12754-3 0  9990,2 53280  53.2166 146.8485 0001272  89.5108 270.6030 15.08843319104715,6917.87,95.437,540.615,538.855,0.0
53280.0,STARLINK-4169,PAYLOAD,2024-06-04 16:24:25,15.08847631,0.0001241,53.216,145.3604,80.8066,279.3066,0.0001513,2.121e-05,0.0,0 STARLINK-4169,1 53280U 22086AQ  24156.68362452  .00002121  00000-0  15130-3 0  9999,2 53280  53.2160 145.3604 0001241  80.8066 279.3066 15.08847631104760,6917.857,95.437,540.581,538.864,0.0
53280.0,STARLINK-4169,PAYLOAD,2024-06-05 05:07:30,15.08839175,0.0001373,53.217,142.9837,96.7831,263.3317,3.8749e-05,3.29e-06,0.0,0 STARLINK-4169,1 53280U 22086AQ  24157.21355263  .00000329  00000-0  38749-4 0  9991,2 53280  53.2170 142.9837 0001373  96.7831 263.3317 15.08839175104670,6917.883,95.438,540.698,538.798,0.0
53280.0,STARLINK-4169,PAYLOAD,2024-06-05 06:42:54,15.08841098,0.0001298,53.2167,142.684,77.2772,282.8365,3.3757e-05,2.49e-06,0.0,0 STARLINK-4169,1 53280U 22086AQ  24157.27979208  .00000249  00000-0  33757-4 0  9993,2 53280  53.2167 142.6840 0001298  77.2772 282.8365 15.08841098104857,6917.877,95.437,540.64,538.844,0.0
53280.0,STARLINK-4169,PAYLOAD,2024-06-05 22:36:45,15.08841421,0.000138,53.2168,139.7135,87.3857,272.7293,2.5035e-05,1.11e-06,0.0,0 STARLINK-4169,1 53280U 22086AQ  24157.94219159  .00000111  00000-0  25035-4 0  9997,2 53280  53.2168 139.7135 0001380  87.3857 272.7293 15.08841421104959,6917.876,95.437,540.696,538.786,0.0
53280.0,STARLINK-4169,PAYLOAD,2024-06-06 04:58:18,15.0883939,0.0001252,53.2162,138.5237,91.9842,268.1294,-2.0608e-05,-6.16e-06,0.0,0 STARLINK-4169,1 53280U 22086AQ  24158.20715428 -.00000616  00000-0 -20608-4 0  9990,2 53280  53.2162 138.5237 0001252  91.9842 268.1294 15.08839390104992,6917.882,95.438,540.613,538.881,0.0
53280.0,STARLINK-4169,PAYLOAD,2024-06-06 16:05:59,15.08846067,0.0001373,53.2172,136.4399,91.3566,268.7584,2.9509e-05,1.82e-06,0.0,0 STARLINK-4169,1 53280U 22086AQ  24158.67082831  .00000182  00000-0  29509-4 0  9991,2 53280  53.2172 136.4399 0001373  91.3566 268.7584 15.08846067104896,6917.862,95.437,540.677,538.777,0.0
53280.0,STARLINK-4169,PAYLOAD,2024-06-07 07:59:51,15.08838723,0.0001502,53.2181,133.4653,103.3021,256.8139,4.7924e-05,4.75e-06,0.0,0 STARLINK-4169,1 53280U 22086AQ  24159.33323301  .00000475  00000-0  47924-4 0  9991,2 53280  53.2181 133.4653 0001502 103.3021 256.8139 15.08838723104995,6917.884,95.438,540.788,538.71,0.0
53280.0,STARLINK-4169,PAYLOAD,2024-06-07 22:18:19,15.08836198,0.0001375,53.2181,130.7891,105.1485,254.9659,0.00014077,1.953e-05,0.0,0 STARLINK-4169,1 53280U 22086AQ  24159.92939204  .00001953  00000-0  14077-3 0  9995,2 53280  53.2181 130.7891 0001375 105.1485 254.9659 15.08836198105251,6917.892,95.438,540.708,538.806,0.0
53280.0,STARLINK-4169,PAYLOAD,2024-06-08 07:50:38,15.08842277,0.0001482,53.218,129.0066,96.0859,264.0302,9.0336e-05,1.15e-05,0.0,0 STARLINK-4169,1 53280U 22086AQ  24160.32683065  .00001150  00000-0  90336-4 0  9994,2 53280  53.2180 129.0066 0001482  96.0859 264.0302 15.08842277105316,6917.873,95.437,540.764,538.713,0.0
53280.0,STARLINK-4169,PAYLOAD,2024-06-09 04:30:39,15.08837977,0.0001251,53.2171,125.144,77.713,282.4002,-8.7142e-05,-1.674e-05,0.0,0 STARLINK-4169,1 53280U 22086AQ  24161.18796190 -.00001674  00000-0 -87142-4 0  9997,2 53280  53.2171 125.1440 0001251  77.7130 282.4002 15.08837977105278,6917.887,95.438,540.617,538.886,0.0
53280.0,STARLINK-4169,PAYLOAD,2024-06-09 14:02:58,15.08838213,0.0001304,53.2174,123.3555,91.6799,268.4342,4.0569e-05,3.58e-06,0.0,0 STARLINK-4169,1 53280U 22086AQ  24161.58539759  .00000358  00000-0  40569-4 0  9995,2 53280  53.2174 123.3555 0001304  91.6799 268.4342 15.08838213105504,6917.886,95.438,540.653,538.849,0.0
53280.0,STARLINK-4169,PAYLOAD,2024-06-09 21:59:54,15.08833672,0.0001383,53.2178,121.8713,88.2936,271.8214,1.7102e-05,-1.6e-07,0.0,0 STARLINK-4169,1 53280U 22086AQ  24161.91660271 -.00000016  00000-0  17102-4 0  9995,2 53280  53.2178 121.8713 0001383  88.2936 271.8214 15.08833672105554,6917.9,95.438,540.721,538.808,0.0
53280.0,STARLINK-4169,PAYLOAD,2024-06-10 13:53:44,15.08847338,0.0001457,53.2185,118.898,88.3654,271.7505,9.4306e-05,1.214e-05,0.0,0 STARLINK-4169,1 53280U 22086AQ  24162.57899263  .00001214  00000-0  94306-4 0  9994,2 53280  53.2185 118.8980 0001457  88.3654 271.7505 15.08847338105651,6917.858,95.437,540.731,538.715,0.0
53280.0,STARLINK-4169,PAYLOAD,2024-06-11 04:12:14,15.08829591,0.0001569,53.2188,116.2251,99.265,260.852,7.8126e-05,9.55e-06,0.0,0 STARLINK-4169,1 53280U 22086AQ  24163.17516673  .00000955  00000-0  78126-4 0  9995,2 53280  53.2188 116.2251 0001569  99.2650 260.8520 15.08829591105576,6917.912,95.438,540.863,538.692,0.0
53280.0,STARLINK-4169,PAYLOAD,2024-06-11 13:44:32,15.08841397,0.0001495,53.2183,114.4388,91.1713,268.9451,0.00010457,1.377e-05,0.0,0 STARLINK-4169,1 53280U 22086AQ  24163.57259926  .00001377  00000-0  10457-3 0  9995,2 53280  53.2183 114.4388 0001495  91.1713 268.9451 15.08841397105807,6917.876,95.437,540.775,538.707,0.0
53280.0,STARLINK-4169,PAYLOAD,2024-06-12 05:38:24,15.08834246,0.0001426,53.2179,111.4624,86.1924,273.9232,-3.0622e-05,-7.75e-06,0.0,0 STARLINK-4169,1 53280U 22086AQ  24164.23501059 -.00000775  00000-0 -30622-4 0  9996,2 53280  53.2179 111.4624 0001426  86.1924 273.9232 15.08834246105734,6917.898,95.438,540.749,538.776,0.0
53280.0,STARLINK-4169,PAYLOAD,2024-06-12 13:35:19,15.08844178,0.0001502,53.2185,109.9755,83.3276,276.7887,1.9429e-05,2.1e-07,0.0,0 STARLINK-4169,1 53280U 22086AQ  24164.56620281  .00000021  00000-0  19429-4 0  9995,2 53280  53.2185 109.9755 0001502  83.3276 276.7887 15.08844178105789,6917.868,95.437,540.772,538.694,0.0
53280.0,STARLINK-4169,PAYLOAD,2024-06-13 13:26:06,15.08852226,0.0001342,53.2185,105.5143,80.4407,279.6737,8.9009e-05,1.129e-05,0.0,0 STARLINK-4169,1 53280U 22086AQ  24165.55979571  .00001129  00000-0  89009-4 0  9995,2 53280  53.2185 105.5143 0001342  80.4407 279.6737 15.08852226106104,6917.843,95.437,540.636,538.78,0.0
53280.0,STARLINK-4169,PAYLOAD,2024-06-14 13:16:53,15.08843203,0.0001631,53.2183,101.0529,99.8186,260.2991,5.3044e-05,5.56e-06,0.0,0 STARLINK-4169,1 53280U 22086AQ  24166.55340265  .00000556  00000-0  53044-4 0  9991,2 53280  53.2183 101.0529 0001631  99.8186 260.2991 15.08843203106080,6917.871,95.437,540.864,538.607,0.0
53280.0,STARLINK-4169,PAYLOAD,2024-06-14 22:49:12,15.08840493,0.0001764,53.2193,99.2684,98.5112,261.608,4.1592e-05,3.74e-06,0.0,0 STARLINK-4169,1 53280U 22086AQ  24166.95084403  .00000374  00000-0  41592-4 0  9997,2 53280  53.2193  99.2684 0001764  98.5112 261.6080 15.08840493106311,6917.879,95.438,540.964,538.524,0.0
53280.0,STARLINK-4169,PAYLOAD,2024-06-15 05:10:45,15.08842772,0.0001741,53.2202,98.0781,111.7992,248.3186,-1.5842e-05,-5.4e-06,0.0,0 STARLINK-4169,1 53280U 22086AQ  24167.21580369 -.00000540  00000-0 -15842-4 0  9995,2 53280  53.2202  98.0781 0001741 111.7992 248.3186 15.08842772106351,6917.872,95.437,540.941,538.533,0.0
53280.0,STARLINK-4169,PAYLOAD,2024-06-15 22:39:59,15.08840485,0.0001609,53.2192,94.8082,102.4365,257.6807,5.6132e-05,6.05e-06,0.0,0 STARLINK-4169,1 53280U 22086AQ  24167.94444146  .00000605  00000-0  56132-4 0  9994,2 53280  53.2192  94.8082 0001609 102.4365 257.6807 15.08840485106465,6917.879,95.438,540.857,538.631,0.0
53280.0,STARLINK-4169,PAYLOAD,2024-06-16 00:15:22,15.08839017,0.0001577,53.219,94.511,102.0618,258.055,4.5129e-05,4.3e-06,0.0,0 STARLINK-4169,1 53280U 22086AQ  24168.01068261  .00000430  00000-0  45129-4 0  9993,2 53280  53.2190  94.5110 0001577 102.0618 258.0550 15.08839017106473,6917.883,95.438,540.839,538.657,0.0
53280.0,STARLINK-4169,PAYLOAD,2024-06-16 22:30:47,15.08830122,0.0001449,53.2182,90.3464,108.825,251.2899,-4.0157e-06,-3.52e-06,0.0,0 STARLINK-4169,1 53280U 22086AQ  24168.93805026 -.00000352  00000-0 -40157-5 0  9994,2 53280  53.2182  90.3464 0001449 108.8250 251.2899 15.08830122106619,6917.911,95.438,540.778,538.773,0.0
53280.0,STARLINK-4169,PAYLOAD,2024-06-17 22:21:34,15.0883075,0.0001285,53.2191,85.8922,97.7058,262.4081,-1.7032e-08,-2.88e-06,0.0,0 STARLINK-4169,1 53280U 22086AQ  24169.93165403 -.00000288  00000-0 -17032-7 0  9999,2 53280  53.2191  85.8922 0001285  97.7058 262.4081 15.08830750106767,6917.909,95.438,540.663,538.885,0.0
